00433   10.59  0.15 K192A   4.70349  178.80773  304.30790   10.82903  0.2227290  0.55980690   1.4580661    FO 190312  7707   1 1893-2019 0.51 M-N 06  Find_Orb   0000 (433)                       20190210
